STARLINK-3864           
1 52468U 22049T   22151.58334491  .00012493  00000+0  93241-4 0  9991
2 52468  53.2148 141.7001 0002088  30.5947 113.3057 15.73214584  4138
STARLINK-3828           
1 52469U 22049U   22151.58334491  .00012178  00000+0  91013-4 0  9997
2 52469  53.2146 141.7026 0002298  21.1431 121.5136 15.73212689  4134
STARLINK-3859           
1 52470U 22049V   22151.58334491  .00012177  00000+0  90934-4 0  9999
2 52470  53.2146 141.6977 0002138  16.7936 128.3647 15.73230560  4133
STARLINK-3862           
1 52471U 22049W   22151.58334491 -.00007322  00000+0 -47685-4 0  9993
2 52471  53.2152 141.7028 0002207  22.0114 121.2833 15.73246816  4134
STARLINK-3881           
1 52472U 22049X   22151.58334491  .00013289  00000+0  98964-4 0  9997
2 52472  53.2143 141.6938 0002378  28.3385 118.1337 15.73196878  4138
STARLINK-3879           
1 52473U 22049Y   22151.58334491  .00012148  00000+0  90826-4 0  9990
2 52473  53.2150 141.6997 0002277  24.8612 119.7167 15.73206057  4133
STARLINK-3855           
1 52474U 22049Z   22151.58334491 -.00005746  00000+0 -36460-4 0  9993
2 52474  53.2142 141.6910 0002301  20.0721 127.6383 15.73243207  4133
STARLINK-3882           
1 52475U 22049AA  22151.58334491  .00011266  00000+0  84604-4 0  9999
2 52475  53.2145 141.6958 0002265  11.9589 133.8711 15.73194018  4138
STARLINK-3835           
1 52476U 22049AB  22151.58334491  .00011182  00000+0  83904-4 0  9999
2 52476  53.2144 141.6891 0002239  15.3889 133.5411 15.73223847  4133
STARLINK-3860           
1 52477U 22049AC  22151.58334491 -.00006574  00000+0 -42399-4 0  9994
2 52477  53.2146 141.6940 0002392  19.0710 127.9917 15.73220596  4131
STARLINK-3825           
1 52478U 22049AD  22151.58334491  .00010788  00000+0  81151-4 0  9994
2 52478  53.2141 141.6874 0002245  15.4308 134.2214 15.73210625  4136
STARLINK-3878           
1 52479U 22049AE  22151.58334491  .00010428  00000+0  78526-4 0  9998
2 52479  53.2144 141.6846 0002236  23.7311 127.7379 15.73230443  4134
STARLINK-3839           
1 52480U 22049AF  22151.58334491 -.00081697  00000+0 -58102-3 0  9995
2 52480  53.2140 141.6849 0002393  22.8233 127.9788 15.73288421  4137
STARLINK-3842           
1 52481U 22049AG  22151.23954241  .00009765  00000+0  73937-4 0  9997
2 52481  53.2154 143.3932 0003301  13.2014 346.9092 15.73192805  5161
STARLINK-3813           
1 52482U 22049AH  22151.17512379  .00009222  00000+0  70056-4 0  9990
2 52482  53.2143 143.6986 0002121  21.1452 338.9656 15.73200732  3912
STARLINK-3875           
1 52483U 22049AJ  22151.25002315 -.00028687  00000+0 -20053-3 0  9993
2 52483  53.2151 143.3364 0002235  26.7268  34.6494 15.73212343  1303
STARLINK-3887           
1 52484U 22049AK  22151.55617013  .00016382  00000+0  12100-3 0  9995
2 52484  53.2162 141.8107 0002316  33.6587 326.4580 15.73183031  4138
STARLINK-3913           
1 52485U 22049AL  22151.58334491 -.00050785  00000+0 -35839-3 0  9996
2 52485  53.2142 141.6811 0002224  16.5215 136.1773 15.73275719  4138
STARLINK-3918           
1 52486U 22049AM  22151.58334491  .00011273  00000+0  84568-4 0  9998
2 52486  53.2153 141.6751 0002128  19.3780 135.8211 15.73218393  4133
STARLINK-3902           
1 52487U 22049AN  22151.58334491  .00010855  00000+0  81613-4 0  9992
2 52487  53.2140 141.6820 0002234  18.7854 133.3034 15.73213338  4130
STARLINK-3892           
1 52488U 22049AP  22151.58334491  .00011330  00000+0  85252-4 0  9995
2 52488  53.2157 141.6725 0002231  28.7482 127.8917 15.73140910  4131
STARLINK-3923           
1 52489U 22049AQ  22151.58334491  .00012314  00000+0  92063-4 0  9997
2 52489  53.2143 141.6777 0002124  22.1624 132.5270 15.73190631  4131
STARLINK-3914           
1 52490U 22049AR  22151.58334491 -.00005237  00000+0 -32989-4 0  9998
2 52490  53.2158 141.6701 0002220  29.0585 128.8296 15.73140840  4138
STARLINK-3908           
1 52491U 22049AS  22151.17467536  .00019407  00000+0  14220-3 0  9990
2 52491  53.2155 143.6964 0001154  36.4620 323.6479 15.73228564  3919
STARLINK-3916           
1 52492U 22049AT  22151.58334491  .00013116  00000+0  97614-4 0  9999
2 52492  53.2153 141.6673 0002157  32.0069 127.0568 15.73226812  4130
STARLINK-3883           
1 52493U 22049AU  22151.25002315  .00019804  00000+0  14518-3 0  9992
2 52493  53.2145 143.3220 0002355  33.6475  34.6564 15.73200597  1304
STARLINK-3857           
1 52494U 22049AV  22151.58334491  .00016630  00000+0  12259-3 0  9996
2 52494  53.2150 141.6618 0002108  14.9822 146.6075 15.73215780  4132
STARLINK-3905           
1 52495U 22049AW  22151.58334491 -.00005619  00000+0 -35646-4 0  9990
2 52495  53.2154 141.6690 0002374  27.0199 131.4461 15.73186727  4133
STARLINK-3871           
1 52496U 22049AX  22151.91667824 -.00690707  00000+0 -46981-2 0  9997
2 52496  53.2173 138.1640 0001109  62.7486   7.9215 15.76105680  4058
STARLINK-3884           
1 52497U 22049AY  22151.25002315  .00002560  00000+0  22655-4 0  9999
2 52497  53.2154 143.3163 0002383  35.7305  35.0957 15.73208048  1300
STARLINK-3925           
1 52498U 22049AZ  22151.91667824  .00083722  00000+0  59449-3 0  9994
2 52498  53.2156 140.0097 0001865  25.0743 226.0290 15.73219795  4187
STARLINK-3894           
1 52499U 22049BA  22151.58334491  .00009115  00000+0  69322-4 0  9995
2 52499  53.2152 141.6644 0002019  14.8635 145.4821 15.73190579  4134
STARLINK-3866           
1 52500U 22049BB  22151.58334491  .00010313  00000+0  77768-4 0  9993
2 52500  53.2148 141.6599 0002277  18.6217 144.1797 15.73213373  4131
STARLINK-3907           
1 52501U 22049BC  22151.58334491  .00011559  00000+0  86552-4 0  9998
2 52501  53.2156 141.6641 0002279  20.9912 139.9575 15.73230643  4134
STARLINK-3912           
1 52502U 22049BD  22151.91667824 -.00025125  00000+0 -17471-3 0  9994
2 52502  53.2145 140.0053 0001721  40.5327 212.5411 15.73253796  4188
STARLINK-3861           
1 52503U 22049BE  22151.58334491  .00011711  00000+0  87668-4 0  9999
2 52503  53.2142 141.6577 0002086  22.3252 141.0989 15.73221396  4136
FALCON 9 DEB            
1 52504U 22049BF  22151.13824184  .00237483  34057-4  50642-3 0  9995
2 52504  53.2026 141.1974 0011612 356.1480   3.9460 15.98098957  3940
FALCON 9 DEB            
1 52505U 22049BG  22151.37799708  .00282989  44492-4  55436-3 0  9996
2 52505  53.2012 139.8436 0011585   8.5047 351.6178 15.99558878  3986
FALCON 9 DEB            
1 52506U 22049BH  22151.66749397  .00344854  63141-4  57600-3 0  9995
2 52506  53.1998 138.0877 0006920   9.8925 350.2242 16.02356289  4036
FALCON 9 DEB            
1 52507U 22049BJ  22151.16049069  .00405401  84555-4  64569-3 0  9990
2 52507  53.2050 140.6216 0008503  16.3487 343.7819 16.03109619  3959
TIANZHOU-4              
1 52509U 22050A   22150.53712163  .00022765  00000+0  27289-3 0  9990
2 52509  41.4723 326.2209 0001229 125.1790 293.0109 15.60387820 62010
2022-050B               
1 52510U 22050B   22150.70386563  .28512381  83776-5  33163-3 0  9995
2 52510  41.4537 317.2553 0009333 298.8573 128.5828 16.49408938  3341
STARLINK-3951           
1 52533U 22051A   22151.91667824 -.00715834  00000+0 -57888-2 0  9999
2 52533  53.2175 204.0582 0002662  14.0952 127.5991 15.72186103  3372
STARLINK-3952           
1 52534U 22051B   22151.91667824 -.00715775  00000+0 -57908-2 0  9997
2 52534  53.2175 204.0591 0002569  15.1350 125.3459 15.72176826  3379
STARLINK-3958           
1 52535U 22051C   22151.58334491 -.00713628  00000+0 -56427-2 0  9992
2 52535  53.2173 205.7107 0004051   0.4876  52.5909 15.72689640  3326
STARLINK-3964           
1 52536U 22051D   22151.58334491 -.00713874  00000+0 -56466-2 0  9999
2 52536  53.2173 205.7090 0002452  14.9245  39.3567 15.72699075  3327
STARLINK-3897           
1 52537U 22051E   22151.58334491 -.00713829  00000+0 -56447-2 0  9999
2 52537  53.2174 205.7084 0002624  13.0275  41.8549 15.72703688  3320
STARLINK-3933           
1 52538U 22051F   22151.58334491 -.00713714  00000+0 -56416-2 0  9999
2 52538  53.2173 205.7074 0002571  13.6773  42.4075 15.72712896  3321
STARLINK-3757           
1 52539U 22051G   22151.91667824 -.00715828  00000+0 -57858-2 0  9995
2 52539  53.2175 204.0568 0002458  16.8594 126.6550 15.72199934  3374
STARLINK-3940           
1 52540U 22051H   22151.91667824 -.00715977  00000+0 -57833-2 0  9995
2 52540  53.2175 204.0546 0002530  15.8698 130.6575 15.72214677  3371
STARLINK-3845           
1 52541U 22051J   22151.91667824 -.00838205  00000+0 -11571-1 0  9994
2 52541  53.2176 204.3919 0001532  39.2755 261.1710 15.58936570  3373
STARLINK-3937           
1 52542U 22051K   22151.91667824 -.00717067  00000+0 -57909-2 0  9993
2 52542  53.2175 204.0543 0002805  11.4801 135.6534 15.72219927  3376
STARLINK-3926           
1 52543U 22051L   22151.91667824 -.00715846  00000+0 -57844-2 0  9995
2 52543  53.2175 204.0551 0002559  15.7051 129.6092 15.72205295  3371
STARLINK-3944           
1 52544U 22051M   22151.91667824 -.00838236  00000+0 -11575-1 0  9995
2 52544  53.2176 204.4034 0001471  41.4262 262.3698 15.58929059  3366
STARLINK-3939           
1 52545U 22051N   22151.91667824 -.00715920  00000+0 -57838-2 0  9993
2 52545  53.2175 204.0548 0002597  15.3421 130.5787 15.72209986  3371
STARLINK-3948           
1 52546U 22051P   22151.91667824 -.00716026  00000+0 -57824-2 0  9997
2 52546  53.2175 204.0511 0002456  17.5222 131.9982 15.72220746  3378
STARLINK-3869           
1 52547U 22051Q   22151.91667824 -.00838314  00000+0 -11578-1 0  9998
2 52547  53.2176 204.3957 0001630  34.3088 268.7401 15.58923698  3372
STARLINK-3931           
1 52548U 22051R   22151.91667824 -.00716140  00000+0 -57780-2 0  9997
2 52548  53.2176 204.0489 0002311  19.4631 133.0886 15.72243938  3374
STARLINK-3935           
1 52549U 22051S   22151.91667824 -.00715959  00000+0 -57835-2 0  9996
2 52549  53.2175 204.0516 0002217  21.2314 127.6826 15.72216117  3371
